SCD 1                   
1 22490U 93009B   26168.52087976  .00000327  00000+0  38486-4 0  9999
2 22490  24.9678 205.5170 0042067 141.2248 338.0371 14.46118916761163
TECHSAT 1B (GO-32)      
1 25397U 98043D   26168.48584790  .00000035  00000+0  35404-4 0  9995
2 25397  99.0067 161.2520 0001079 161.9506 198.1711 14.24428440451372
SCD 2                   
1 25504U 98060A   26168.17956295  .00000355  00000+0  48260-4 0  9992
2 25504  24.9954  72.2040 0016945 122.8124  10.9716 14.45525886460328
DLR-TUBSAT              
1 25757U 99029B   26168.50010189  .00000049  00000+0  23873-4 0  9991
2 25757  98.6695 164.0144 0014029 354.3005   5.8027 14.52426904433297
TERRA                   
1 25994U 99068A   26168.84974205  .00000309  00000+0  71898-4 0  9991
2 25994  97.9456 218.3697 0001631 187.1264 288.8317 14.61103577409709
MAROC-TUBSAT            
1 27004U 01056D   26168.44055534 -.00000042  00000+0  53626-5 0  9991
2 27004  99.8082 345.3048 0020338 140.6327 282.6100 13.70262458226228
AQUA                    
1 27424U 02022A   26168.80698557  .00000587  00000+0  12652-3 0  9994
2 27424  98.4277 138.1021 0001081  53.5889   7.8988 14.62158874283360
SHIYAN-1 (SY-1)         
1 28220U 04012A   26168.77077830  .00011053  00000+0  34083-3 0  9993
2 28220  97.8690 246.8770 0005535  30.8404 329.3161 15.33772714211184
AURA                    
1 28376U 04026A   26168.80775867  .00000611  00000+0  13352-3 0  9993
2 28376  98.3417 125.2661 0001207  75.7908 284.3426 14.61329964166309
IRS-P5 (CARTOSAT-1)     
1 28649U 05017A   26168.81649176  .00001221  00000+0  12869-3 0  9991
2 28649  97.5307 191.8524 0002557  79.1721 280.9786 14.91050998143912
SINAH 1                 
1 28893U 05043D   26168.80589073  .00000230  00000+0  53101-4 0  9993
2 28893  98.2862 303.1315 0013127 274.6693  85.3010 14.64157978100611
RESURS-DK 1             
1 29228U 06021A   26168.76249632  .00001758  00000+0  10480-3 0  9990
2 29228  69.9330 338.0639 0006884 291.2664  68.7767 15.13220077102667
ARIRANG-2 (KOMPSAT-2)   
1 29268U 06031A   26168.84916542  .00000541  00000+0  11004-3 0  9997
2 29268  97.8301 353.2634 0015932  72.6341  40.0484 14.64661614 61574
LAPAN-TUBSAT            
1 29709U 07001A   26168.86039321 -.00000366  00000+0 -35234-4 0  9997
2 29709  98.1337 168.0994 0011903 177.1314 182.9971 14.85948150 51250
HAIYANG-1B              
1 31113U 07010A   26168.49440790  .00000068  00000+0  41815-4 0  9993
2 31113  98.3495 150.3277 0013032 195.3754 164.7035 14.31026969   688
COSMO-SKYMED 1          
1 31598U 07023A   26168.80338220  .00002185  00000+0  19457-3 0  9991
2 31598  97.8848   0.6641 0001343  98.6097 261.5277 14.97101711 29888
TERRASAR-X              
1 31698U 07026A   26168.58693639  .00000280  00000+0  16539-4 0  9991
2 31698  97.4452 176.2866 0001560  90.2646 269.8767 15.19150392 53284
WORLDVIEW-1 (WV-1)      
1 32060U 07041A   26168.81724786  .00004889  00000+0  20311-3 0  9997
2 32060  97.3882 288.5514 0002190  19.9873 340.1450 15.24272764 42971
YAOGAN-3                
1 32289U 07055A   26168.86567493  .00000808  00000+0  87810-4 0  9995
2 32289  97.8148 198.7365 0001903  79.4958 280.6475 14.90781941  5974
COSMO-SKYMED 2          
1 32376U 07059A   26168.83615179  .00000293  00000+0  43424-4 0  9999
2 32376  97.8886 352.4246 0001345  87.8712 272.2655 14.82155429  2104
RADARSAT-2              
1 32382U 07061A   26168.87746399 -.00000258  00000+0 -83249-4 0  9994
2 32382  98.5771 175.7999 0001297  83.6168 276.5162 14.29980908966050
CARTOSAT-2A             
1 32783U 08021A   26168.85824766  .00000359  00000+0  55035-4 0  9991
2 32783  97.7630 217.5440 0013203 106.6538 253.6125 14.79239383978904
HUANJING 1A (HJ-1A)     
1 33320U 08041A   26168.90802916  .00000799  00000+0  10190-3 0  9990
2 33320  97.6678 154.7181 0019995 132.5641 227.7265 14.83986326958517
HUANJING 1B (HJ-1B)     
1 33321U 08041B   26168.87742689  .00000981  00000+0  12479-3 0  9992
2 33321  97.6515 157.8587 0036105 178.5880 181.5443 14.83319344958514
GEOEYE 1                
1 33331U 08042A   26168.83503852  .00000365  00000+0  77470-4 0  9996
2 33331  98.1236 242.7581 0005378  68.1017 292.0757 14.64726296950248
THEOS                   
1 33396U 08049A   26168.88478709 -.00000302  00000+0 -12194-3 0  9995
2 33396  98.5569 226.1457 0001239  78.4183 281.7133 14.20131960918067
COSMO-SKYMED 3          
1 33412U 08054A   26168.87356383  .00002704  00000+0  18484-3 0  9996
2 33412  97.8280  27.4551 0014099 264.4077  95.5542 15.06957651957046
YAOGAN-4                
1 33446U 08061A   26168.77426433  .00000774  00000+0  10121-3 0  9999
2 33446  97.9308 102.2802 0015698  70.6911 289.5998 14.83201079945751
GOSAT (IBUKI)           
1 33492U 09002A   26168.82017819  .00000910  00000+0  16891-3 0  9998
2 33492  98.0893 279.8932 0001467  83.1672 276.9699 14.67540347931557
DEIMOS-1                
1 35681U 09041A   26168.79681514  .00000273  00000+0  47337-4 0  9990
2 35681  97.7401 325.9974 0001662 129.5601 230.5756 14.75237242906977
